CCSDS_OMM_VERS,COMMENT,CREATION_DATE,ORIGINATOR,OBJECT_NAME,OBJECT_ID,CENTER_NAME,REF_FRAME,TIME_SYSTEM,MEAN_ELEMENT_THEORY,EPOCH,MEAN_MOTION,ECCENTRICITY,INCLINATION,RA_OF_ASC_NODE,ARG_OF_PERICENTER,MEAN_ANOMALY,EPHEMERIS_TYPE,CLASSIFICATION_TYPE,NORAD_CAT_ID,ELEMENT_SET_NO,REV_AT_EPOCH,BSTAR,MEAN_MOTION_DOT,MEAN_MOTION_DDOT,SEMIMAJOR_AXIS,PERIOD,APOAPSIS,PERIAPSIS,OBJECT_TYPE,RCS_SIZE,COUNTRY_CODE,LAUNCH_DATE,SITE,DECAY_DATE,FILE,GP_ID,TLE_LINE0,TLE_LINE1,TLE_LINE2
2,GENERATED VIA SPACE-TRACK.ORG API,2020-05-28T20:22:04,18 SPCS,SKYNET 4D,1998-002A,EARTH,TEME,UTC,SGP4,2020-05-28T08:26:53.680416,0.99156477,0.0006159,11.3773,23.6736,48.3872,111.9731,0,U,25134,999,8145,0.0,-2.2e-06,0,42480.32,1452.25,36128.348,36076.021,PAYLOAD,LARGE,UK,1998-01-10,AFETR,,2755450,154670758,0 SKYNET 4D,1 25134U 98002A   20149.35201019 -.00000220 +00000-0 +00000-0 0  9996,2 25134 011.3773 023.6736 0006159 048.3872 111.9731 00.99156477081458
2,GENERATED VIA SPACE-TRACK.ORG API,2020-05-29T20:05:12,18 SPCS,SKYNET 4D,1998-002A,EARTH,TEME,UTC,SGP4,2020-05-29T10:40:24.386880,0.99156455,0.0006254,11.3779,23.6668,48.6064,141.8253,0,U,25134,999,8152,0.0,-2.46e-06,0,42480.326,1452.25,36128.758,36075.624,PAYLOAD,LARGE,UK,1998-01-10,AFETR,,2756089,154725228,0 SKYNET 4D,1 25134U 98002A   20150.44472670 -.00000246 +00000-0 +00000-0 0  9999,2 25134 011.3779 023.6668 0006254 048.6064 141.8253 00.99156455081525
2,GENERATED VIA SPACE-TRACK.ORG API,2020-05-30T19:33:27,18 SPCS,SKYNET 4D,1998-002A,EARTH,TEME,UTC,SGP4,2020-05-30T08:31:49.906272,0.99156396,0.0006336,11.3785,23.6613,48.9071,106.6249,0,U,25134,999,8147,0.0,-2.66e-06,0,42480.343,1452.251,36129.123,36075.292,PAYLOAD,LARGE,UK,1998-01-10,AFETR,,2756534,154795352,0 SKYNET 4D,1 25134U 98002A   20151.35543873 -.00000266 +00000-0 +00000-0 0  9996,2 25134 011.3785 023.6613 0006336 048.9071 106.6249 00.99156396081476
2,GENERATED VIA SPACE-TRACK.ORG API,2020-05-31T17:09:58,18 SPCS,SKYNET 4D,1998-002A,EARTH,TEME,UTC,SGP4,2020-05-31T10:21:25.926912,0.9915629,0.0006433,11.3791,23.6548,49.4185,130.2568,0,U,25134,999,8148,0.0,-2.86e-06,0,42480.373,1452.252,36129.566,36074.911,PAYLOAD,LARGE,UK,1998-01-10,AFETR,,2756854,154842807,0 SKYNET 4D,1 25134U 98002A   20152.43155008 -.00000286 +00000-0 +00000-0 0  9997,2 25134 011.3791 023.6548 0006433 049.4185 130.2568 00.99156290081481
2,GENERATED VIA SPACE-TRACK.ORG API,2020-06-01T14:36:09,18 SPCS,SKYNET 4D,1998-002A,EARTH,TEME,UTC,SGP4,2020-06-01T10:25:57.275616,0.99156161,0.0006519,11.3798,23.6488,50.0908,127.6787,0,U,25134,999,8155,0.0,-3.01e-06,0,42480.41,1452.254,36129.968,36074.582,PAYLOAD,LARGE,UK,1998-01-10,AFETR,,2757182,154883629,0 SKYNET 4D,1 25134U 98002A   20153.43469069 -.00000301  00000-0  00000+0 0  9990,2 25134  11.3798  23.6488 0006519  50.0908 127.6787  0.99156161 81555
2,GENERATED VIA SPACE-TRACK.ORG API,2020-06-01T18:42:19,18 SPCS,SKYNET 4D,1998-002A,EARTH,TEME,UTC,SGP4,2020-06-01T12:03:49.042080,0.99156151,0.0006526,11.3798,23.6484,50.1703,151.8592,0,U,25134,999,8149,0.0,-3.02e-06,0,42480.413,1452.254,36130.001,36074.555,PAYLOAD,LARGE,UK,1998-01-10,AFETR,,2757259,154891875,0 SKYNET 4D,1 25134U 98002A   20153.50265095 -.00000302 +00000-0 +00000-0 0  9993,2 25134 011.3798 023.6484 0006526 050.1703 151.8592 00.99156151081498
2,GENERATED VIA SPACE-TRACK.ORG API,2020-06-02T16:51:34,18 SPCS,SKYNET 4D,1998-002A,EARTH,TEME,UTC,SGP4,2020-06-02T09:58:48.357408,0.9915601,0.0006593,11.3804,23.6429,50.8938,117.1181,0,U,25134,999,8150,0.0,-3.12e-06,0,42480.453,1452.256,36130.326,36074.311,PAYLOAD,LARGE,UK,1998-01-10,AFETR,,2758047,154949684,0 SKYNET 4D,1 25134U 98002A   20154.41583747 -.00000312 +00000-0 +00000-0 0  9992,2 25134 011.3804 023.6429 0006593 050.8938 117.1181 00.99156010081501
2,GENERATED VIA SPACE-TRACK.ORG API,2020-06-03T20:44:49,18 SPCS,SKYNET 4D,1998-002A,EARTH,TEME,UTC,SGP4,2020-06-03T10:03:15.018048,0.99155832,0.0006657,11.3811,23.637,51.7949,114.2906,0,U,25134,999,8151,0.0,-3.2e-06,0,42480.504,1452.259,36130.648,36074.09,PAYLOAD,LARGE,UK,1998-01-10,AFETR,,2758755,155004392,0 SKYNET 4D,1 25134U 98002A   20155.41892382 -.00000320 +00000-0 +00000-0 0  9990,2 25134 011.3811 023.6370 0006657 051.7949 114.2906 00.99155832081512
2,GENERATED VIA SPACE-TRACK.ORG API,2020-06-04T06:46:09,18 SPCS,SKYNET 4D,1998-002A,EARTH,TEME,UTC,SGP4,2020-06-03T22:40:43.037184,0.99155762,0.0006682,11.3814,23.6339,52.3451,301.5143,0,U,25134,999,8158,0.0,-3.21e-06,0,42480.524,1452.26,36130.774,36074.004,PAYLOAD,LARGE,UK,1998-01-10,AFETR,,2758974,155043136,0 SKYNET 4D,1 25134U 98002A   20155.94494256 -.00000321  00000-0  00000+0 0  9996,2 25134  11.3814  23.6339 0006682  52.3451 301.5143  0.99155762 81586
2,GENERATED VIA SPACE-TRACK.ORG API,2020-06-05T18:39:15,18 SPCS,SKYNET 4D,1998-002A,EARTH,TEME,UTC,SGP4,2020-06-04T22:46:57.404928,0.99155536,0.0006723,11.382,23.6279,53.2928,299.0841,0,U,25134,999,8152,0.0,-3.22e-06,0,42480.589,1452.263,36131.013,36073.894,PAYLOAD,LARGE,UK,1998-01-10,AFETR,,2760019,155114016,0 SKYNET 4D,1 25134U 98002A   20156.94927552 -.00000322 +00000-0 +00000-0 0  9999,2 25134 011.3820 023.6279 0006723 053.2928 299.0841 00.99155536081520
2,GENERATED VIA SPACE-TRACK.ORG API,2020-06-06T14:46:09,18 SPCS,SKYNET 4D,1998-002A,EARTH,TEME,UTC,SGP4,2020-06-06T07:08:03.918048,0.99155192,0.0006741,11.3829,23.6198,54.6415,58.9276,0,U,25134,999,8160,0.0,-3.15e-06,0,42480.687,1452.268,36131.188,36073.916,PAYLOAD,LARGE,UK,1998-01-10,AFETR,,2760504,155158236,0 SKYNET 4D,1 25134U 98002A   20158.29726757 -.00000315  00000-0  00000+0 0  9994,2 25134  11.3829  23.6198 0006741  54.6415  58.9276  0.99155192 81606
2,GENERATED VIA SPACE-TRACK.ORG API,2020-06-07T20:32:56,18 SPCS,SKYNET 4D,1998-002A,EARTH,TEME,UTC,SGP4,2020-06-06T12:39:03.923136,0.99155101,0.0006746,11.3831,23.6184,54.8129,140.8096,0,U,25134,999,8154,0.0,-3.13e-06,0,42480.713,1452.27,36131.235,36073.92,PAYLOAD,LARGE,UK,1998-01-10,AFETR,,2760918,155215153,0 SKYNET 4D,1 25134U 98002A   20158.52712874 -.00000313 +00000-0 +00000-0 0  9994,2 25134 011.3831 023.6184 0006746 054.8129 140.8096 00.99155101081547
2,GENERATED VIA SPACE-TRACK.ORG API,2020-06-08T01:29:26,18 SPCS,SKYNET 4D,1998-002A,EARTH,TEME,UTC,SGP4,2020-06-07T12:45:08.487936,0.991548,0.0006734,11.3837,23.6123,55.7769,138.3201,0,U,25134,999,8155,0.0,-3.02e-06,0,42480.799,1452.274,36131.27,36074.057,PAYLOAD,LARGE,UK,1998-01-10,AFETR,,2760983,155236356,0 SKYNET 4D,1 25134U 98002A   20159.53134824 -.00000302 +00000-0 +00000-0 0  9997,2 25134 011.3837 023.6123 0006734 055.7769 138.3201 00.99154800081559
2,GENERATED VIA SPACE-TRACK.ORG API,2020-06-09T07:16:11,18 SPCS,SKYNET 4D,1998-002A,EARTH,TEME,UTC,SGP4,2020-06-08T23:11:00.828384,0.99154313,0.000669,11.3846,23.6034,56.9898,289.2244,0,U,25134,999,8163,0.0,-2.78e-06,0,42480.938,1452.281,36131.223,36074.383,PAYLOAD,LARGE,UK,1998-01-10,AFETR,,2761638,155343323,0 SKYNET 4D,1 25134U 98002A   20160.96598181 -.00000278  00000-0  00000+0 0  9997,2 25134  11.3846  23.6034 0006690  56.9898 289.2244  0.99154313 81638
2,GENERATED VIA SPACE-TRACK.ORG API,2020-06-09T17:37:37,18 SPCS,SKYNET 4D,1998-002A,EARTH,TEME,UTC,SGP4,2020-06-09T11:13:57.357408,0.99154137,0.0006656,11.3849,23.6003,57.4566,107.9694,0,U,25134,999,8157,0.0,-2.68e-06,0,42480.988,1452.284,36131.128,36074.578,PAYLOAD,LARGE,UK,1998-01-10,AFETR,,2762041,155356843,0 SKYNET 4D,1 25134U 98002A   20161.46802497 -.00000268 +00000-0 +00000-0 0  9991,2 25134 011.3849 023.6003 0006656 057.4566 107.9694 00.99154137081579
2,GENERATED VIA SPACE-TRACK.ORG API,2020-06-10T05:01:22,18 SPCS,SKYNET 4D,1998-002A,EARTH,TEME,UTC,SGP4,2020-06-09T12:57:08.732160,0.991541,0.0006654,11.385,23.5998,57.4975,133.5084,0,U,25134,999,8157,0.0,-2.66e-06,0,42480.999,1452.284,36131.131,36074.597,PAYLOAD,LARGE,UK,1998-01-10,AFETR,,2762242,155384280,0 SKYNET 4D,1 25134U 98002A   20161.53968440 -.00000266 +00000-0 +00000-0 0  9998,2 25134 011.3850 023.5998 0006654 057.4975 133.5084 00.99154100081573
2,GENERATED VIA SPACE-TRACK.ORG API,2020-06-10T19:25:38,18 SPCS,SKYNET 4D,1998-002A,EARTH,TEME,UTC,SGP4,2020-06-10T01:00:07.356384,0.99153904,0.0006636,11.3853,23.5966,57.8402,312.3865,0,U,25134,999,8158,0.0,-2.55e-06,0,42481.055,1452.287,36131.11,36074.729,PAYLOAD,LARGE,UK,1998-01-10,AFETR,,2762563,155410179,0 SKYNET 4D,1 25134U 98002A   20162.04175181 -.00000255 +00000-0 +00000-0 0  9995,2 25134 011.3853 023.5966 0006636 057.8402 312.3865 00.99153904081586
2,GENERATED VIA SPACE-TRACK.ORG API,2020-06-11T04:14:11,18 SPCS,SKYNET 4D,1998-002A,EARTH,TEME,UTC,SGP4,2020-06-10T13:03:05.881248,0.99153706,0.0006595,11.3856,23.5934,58.2211,131.2251,0,U,25134,999,8158,0.0,-2.43e-06,0,42481.111,1452.29,36130.993,36074.96,PAYLOAD,LARGE,UK,1998-01-10,AFETR,,2762836,155457253,0 SKYNET 4D,1 25134U 98002A   20162.54381807 -.00000243 +00000-0 +00000-0 0  9991,2 25134 011.3856 023.5934 0006595 058.2211 131.2251 00.99153706081588
2,GENERATED VIA SPACE-TRACK.ORG API,2020-06-11T22:14:26,18 SPCS,SKYNET 4D,1998-002A,EARTH,TEME,UTC,SGP4,2020-06-11T00:32:42.717696,0.991535,0.0006576,11.3858,23.5903,58.5008,301.8951,0,U,25134,999,8158,0.0,-2.3e-06,0,42481.17,1452.293,36130.971,36075.099,PAYLOAD,,UK,1998-01-10,AFETR,,2763330,155487162,0 SKYNET 4D,1 25134U 98002A   20163.02271664 -.00000230 +00000-0 +00000-0 0  9990,2 25134 011.3858 023.5903 0006576 058.5008 301.8951 00.99153500081586
2,GENERATED VIA SPACE-TRACK.ORG API,2020-06-12T01:13:32,18 SPCS,SKYNET 4D,1998-002A,EARTH,TEME,UTC,SGP4,2020-06-11T20:54:48.568608,0.99153137,0.0006513,11.3863,23.5848,58.9717,244.3707,0,U,25134,999,8159,0.0,-2.07e-06,0,42481.274,1452.298,36130.807,36075.471,PAYLOAD,,UK,1998-01-10,AFETR,,2763438,155509311,0 SKYNET 4D,1 25134U 98002A   20163.87139547 -.00000207 +00000-0 +00000-0 0  9990,2 25134 011.3863 023.5848 0006513 058.9717 244.3707 00.99153137081599
